[
    {
        "params": {
            "ano": "2005",
            "fmt": "txt",
            "hora": "11",
            "anof": "2005",
            "mes": "01",
            "day": "01",
            "lang": "en",
            "lugar": "KDTW",
            "nil": "NO",
            "mesf": "01",
            "ord": "DIR",
            "dayf": "01",
            "minf": "47",
            "send": "send",
            "tipo": "SA",
            "horaf": "19"
        },
        "text": "<!-- $Id$ -->\n<!DOCTYPE HTML PUBLIC \"-//W3C//DTD HTML 4.01 Transitional//EN\">\n<html>\n<head>\n  <title>Display metars</title>\n  <meta http-equiv=\"Content-Type\" content=\"text/html; charset=utf-8\">\n  <meta name=\"Author\" content=\"G. Ballester\">\n  <meta name=\"GENERATOR\" content=\"Quanta Plus\">\n  <meta name=\"robots\" content=\"index,nofollow\">\n  <meta name=\"keywords\" content=\"metar, speci, taf, weather reports\">\n  <meta name=viewport content=\"width=device-width, initial-scale=1\">  \n  <link rel=\"stylesheet\" href=\"/ogimet.css\">\n  <link rel=\"stylesheet\" type=\"text/css\" href=\"//cdnjs.cloudflare.com/ajax/libs/cookieconsent2/3.0.3/cookieconsent.min.css\" />\n<script src=\"//cdnjs.cloudflare.com/ajax/libs/cookieconsent2/3.0.3/cookieconsent.min.js\"></script>\n<script>\nwindow.addEventListener(\"load\", function(){\nwindow.cookieconsent.initialise({\n  \"palette\": {\n    \"popup\": {\n      \"background\": \"#eb6c44\",\n      \"text\": \"#ffffff\"\n    },\n    \"button\": {\n      \"background\": \"#f5d948\"\n    }\n  },\n  \"theme\": \"classic\",\n  \"position\": \"top\",\n  \"content\": {\n    \"message\": \"Las cookies de este sitio web se usan para personalizar el contenido y los anuncios, ofrecer funciones de redes sociales y analizar el tr\u00e1fico. Ademas, compartimos el uso que haga del sitio web con nuestros partners de redes sociales, publicidad y an\u00e1lisis web, quienes pueden combinarla con otra informaci\u00f3n que les haya proporcionado o que hayan recopilado a partir del uso que haya hecho de sus servicios. Si continua navegando en estas p\u00e1ginas consideramos que acepta su uso. \",\n    \"dismiss\": \"Entendido\",\n    \"link\": \"Saber m\u00e1s\",\n    \"href\": \"/cookiespolicy.phtml\"\n  }\n})});\n</script>\n</head>\n<body>\n<pre>\n##########################################################\n# Query made at 06/26/2021 20:13:34 UTC\n# Time interval: from 01/01/2005 11:00  to 01/01/2005 19:47  UTC\n##########################################################\n\n##########################################################\n# KDTW, Detroit, Detroit Metropolitan Wayne County Airport (United States)\n# WMO index: 72537\n# Latitude 42-13-53N. Longitude 083-19-51W. Altitude 194 m.\n##########################################################\n\n###################################\n#  METAR/SPECI from KDTW\n###################################\n200501011154 METAR KDTW 011154Z 34003KT 10SM CLR M02/M06 A3041 RMK AO2 SLP303 70001 T10171061 10044 21017 53031=\n200501011254 METAR KDTW 011254Z COR 36003KT 10SM SCT100 BKN150 M02/M06 A3043 RMK AO2 SLP309 T10171061=\n200501011354 METAR KDTW 011354Z 35004KT 10SM SCT100 BKN150 M01/M06 A3046 RMK AO2 SLP320 T10111056=\n200501011454 METAR KDTW 011454Z 01006KT 10SM CLR M01/M06 A3048 RMK AO2 SLP327 T10061061 53023=\n200501011554 METAR KDTW 011554Z 01007KT 10SM OVC140 00/M06 A3051 RMK AO2 SLP336 T00001061=\n200501011654 METAR KDTW 011654Z 04005KT 10SM OVC140 01/M06 A3051 RMK AO2 SLP338 T00111061=\n200501011754 METAR KDTW 011754Z 06005KT 10SM OVC150 02/M07 A3050 RMK AO2 SLP332 T00171067 10017 21017 50004=\n200501011854 METAR KDTW 011854Z 06006KT 10SM OVC150 02/M06 A3048 RMK AO2 SLP329 T00221061=\n\n</pre>\n\n</body>\n</html>\n"
    },
    {
        "params": {
            "mesf": "11",
            "lugar": "KMLB",
            "send": "send",
            "fmt": "txt",
            "dayf": "24",
            "day": "24",
            "ano": "2024",
            "lang": "en",
            "nil": "NO",
            "anof": "2024",
            "ord": "DIR",
            "horaf": "22",
            "minf": "04",
            "mes": "11",
            "tipo": "SA",
            "hora": "13"
        },
        "text": "<!-- $Id$ -->\n<!DOCTYPE HTML PUBLIC \"-//W3C//DTD HTML 4.01 Transitional//EN\">\n<html>\n<head>\n  <title>Display metars</title>\n  <meta http-equiv=\"Content-Type\" content=\"text/html; charset=utf-8\">\n  <meta name=\"Author\" content=\"G. Ballester\">\n  <meta name=\"GENERATOR\" content=\"Quanta Plus\">\n  <meta name=\"robots\" content=\"index,nofollow\">\n  <meta name=\"keywords\" content=\"metar, speci, taf, weather reports\">\n  <meta name=viewport content=\"width=device-width, initial-scale=1\">  \n  <link rel=\"stylesheet\" href=\"/ogimet.css\">\n  <link rel=\"stylesheet\" type=\"text/css\" href=\"//cdnjs.cloudflare.com/ajax/libs/cookieconsent2/3.0.3/cookieconsent.min.css\" />\n<script src=\"//cdnjs.cloudflare.com/ajax/libs/cookieconsent2/3.0.3/cookieconsent.min.js\"></script>\n<script>\nwindow.addEventListener(\"load\", function(){\nwindow.cookieconsent.initialise({\n  \"palette\": {\n    \"popup\": {\n      \"background\": \"#eb6c44\",\n      \"text\": \"#ffffff\"\n    },\n    \"button\": {\n      \"background\": \"#f5d948\"\n    }\n  },\n  \"theme\": \"classic\",\n  \"position\": \"top\",\n  \"content\": {\n    \"message\": \"Las cookies de este sitio web se usan para personalizar el contenido y los anuncios, ofrecer funciones de redes sociales y analizar el tr\u00e1fico. Ademas, compartimos el uso que haga del sitio web con nuestros partners de redes sociales, publicidad y an\u00e1lisis web, quienes pueden combinarla con otra informaci\u00f3n que les haya proporcionado o que hayan recopilado a partir del uso que haya hecho de sus servicios. Si continua navegando en estas p\u00e1ginas consideramos que acepta su uso. \",\n    \"dismiss\": \"Entendido\",\n    \"link\": \"Saber m\u00e1s\",\n    \"href\": \"/cookiespolicy.phtml\"\n  }\n})});\n</script>\n</head>\n<body>\n<pre>\n##########################################################\n# Query made at 06/26/2021 20:27:50 UTC\n# Time interval: from 11/24/2024 13:00  to 11/24/2024 22:04  UTC\n##########################################################\n\n##########################################################\n# KMLB, Melbourne, Melbourne International Airport (United States)\n# WMO index: 72204\n# Latitude 28-06-10N. Longitude 080-38-45W. Altitude 10 m.\n##########################################################\n\n# No METAR/SPECI reports frome KMLB in database.\n\n# No short TAF reports from KMLB in databse.\n\n# No large TAF reports from KMLB in databse.\n\n</pre>\n\n</body>\n</html>\n"
    },
    {
        "params": {
            "lugar": "KMLB",
            "minf": "25",
            "fmt": "txt",
            "ano": "2023",
            "mes": "09",
            "mesf": "09",
            "lang": "en",
            "nil": "NO",
            "day": "19",
            "ord": "DIR",
            "hora": "21",
            "anof": "2023",
            "dayf": "20",
            "horaf": "05",
            "send": "send",
            "tipo": "SA"
        },
        "text": "<!-- $Id$ -->\n<!DOCTYPE HTML PUBLIC \"-//W3C//DTD HTML 4.01 Transitional//EN\">\n<html>\n<head>\n  <title>Display metars</title>\n  <meta http-equiv=\"Content-Type\" content=\"text/html; charset=utf-8\">\n  <meta name=\"Author\" content=\"G. Ballester\">\n  <meta name=\"GENERATOR\" content=\"Quanta Plus\">\n  <meta name=\"robots\" content=\"index,nofollow\">\n  <meta name=\"keywords\" content=\"metar, speci, taf, weather reports\">\n  <meta name=viewport content=\"width=device-width, initial-scale=1\">  \n  <link rel=\"stylesheet\" href=\"/ogimet.css\">\n  <link rel=\"stylesheet\" type=\"text/css\" href=\"//cdnjs.cloudflare.com/ajax/libs/cookieconsent2/3.0.3/cookieconsent.min.css\" />\n<script src=\"//cdnjs.cloudflare.com/ajax/libs/cookieconsent2/3.0.3/cookieconsent.min.js\"></script>\n<script>\nwindow.addEventListener(\"load\", function(){\nwindow.cookieconsent.initialise({\n  \"palette\": {\n    \"popup\": {\n      \"background\": \"#eb6c44\",\n      \"text\": \"#ffffff\"\n    },\n    \"button\": {\n      \"background\": \"#f5d948\"\n    }\n  },\n  \"theme\": \"classic\",\n  \"position\": \"top\",\n  \"content\": {\n    \"message\": \"Las cookies de este sitio web se usan para personalizar el contenido y los anuncios, ofrecer funciones de redes sociales y analizar el tr\u00e1fico. Ademas, compartimos el uso que haga del sitio web con nuestros partners de redes sociales, publicidad y an\u00e1lisis web, quienes pueden combinarla con otra informaci\u00f3n que les haya proporcionado o que hayan recopilado a partir del uso que haya hecho de sus servicios. Si continua navegando en estas p\u00e1ginas consideramos que acepta su uso. \",\n    \"dismiss\": \"Entendido\",\n    \"link\": \"Saber m\u00e1s\",\n    \"href\": \"/cookiespolicy.phtml\"\n  }\n})});\n</script>\n</head>\n<body>\n<pre>\n##########################################################\n# Query made at 06/26/2021 20:27:50 UTC\n# Time interval: from 09/19/2023 21:00  to 09/20/2023 05:25  UTC\n##########################################################\n\n##########################################################\n# KMLB, Melbourne, Melbourne International Airport (United States)\n# WMO index: 72204\n# Latitude 28-06-10N. Longitude 080-38-45W. Altitude 10 m.\n##########################################################\n\n# No METAR/SPECI reports frome KMLB in database.\n\n# No short TAF reports from KMLB in databse.\n\n# No large TAF reports from KMLB in databse.\n\n</pre>\n\n</body>\n</html>\n"
    },
    {
        "params": {
            "day": "25",
            "lugar": "KMLB",
            "mesf": "11",
            "fmt": "txt",
            "horaf": "06",
            "send": "send",
            "ano": "2018",
            "hora": "22",
            "lang": "en",
            "nil": "NO",
            "anof": "2018",
            "ord": "DIR",
            "minf": "57",
            "dayf": "26",
            "mes": "11",
            "tipo": "SA"
        },
        "text": "<!-- $Id$ -->\n<!DOCTYPE HTML PUBLIC \"-//W3C//DTD HTML 4.01 Transitional//EN\">\n<html>\n<head>\n  <title>Display metars</title>\n  <meta http-equiv=\"Content-Type\" content=\"text/html; charset=utf-8\">\n  <meta name=\"Author\" content=\"G. Ballester\">\n  <meta name=\"GENERATOR\" content=\"Quanta Plus\">\n  <meta name=\"robots\" content=\"index,nofollow\">\n  <meta name=\"keywords\" content=\"metar, speci, taf, weather reports\">\n  <meta name=viewport content=\"width=device-width, initial-scale=1\">  \n  <link rel=\"stylesheet\" href=\"/ogimet.css\">\n  <link rel=\"stylesheet\" type=\"text/css\" href=\"//cdnjs.cloudflare.com/ajax/libs/cookieconsent2/3.0.3/cookieconsent.min.css\" />\n<script src=\"//cdnjs.cloudflare.com/ajax/libs/cookieconsent2/3.0.3/cookieconsent.min.js\"></script>\n<script>\nwindow.addEventListener(\"load\", function(){\nwindow.cookieconsent.initialise({\n  \"palette\": {\n    \"popup\": {\n      \"background\": \"#eb6c44\",\n      \"text\": \"#ffffff\"\n    },\n    \"button\": {\n      \"background\": \"#f5d948\"\n    }\n  },\n  \"theme\": \"classic\",\n  \"position\": \"top\",\n  \"content\": {\n    \"message\": \"Las cookies de este sitio web se usan para personalizar el contenido y los anuncios, ofrecer funciones de redes sociales y analizar el tr\u00e1fico. Ademas, compartimos el uso que haga del sitio web con nuestros partners de redes sociales, publicidad y an\u00e1lisis web, quienes pueden combinarla con otra informaci\u00f3n que les haya proporcionado o que hayan recopilado a partir del uso que haya hecho de sus servicios. Si continua navegando en estas p\u00e1ginas consideramos que acepta su uso. \",\n    \"dismiss\": \"Entendido\",\n    \"link\": \"Saber m\u00e1s\",\n    \"href\": \"/cookiespolicy.phtml\"\n  }\n})});\n</script>\n</head>\n<body>\n<pre>\n##########################################################\n# Query made at 06/26/2021 20:27:52 UTC\n# Time interval: from 11/25/2018 22:00  to 11/26/2018 06:57  UTC\n##########################################################\n\n##########################################################\n# KMLB, Melbourne, Melbourne International Airport (United States)\n# WMO index: 72204\n# Latitude 28-06-10N. Longitude 080-38-45W. Altitude 10 m.\n##########################################################\n\n###################################\n#  METAR/SPECI from KMLB\n###################################\n201811252253 METAR KMLB 252253Z 06005KT 10SM CLR 22/19 A2994 RMK AO2 SLP137 T02170189 $=\n201811252353 METAR KMLB 252353Z 06006KT 10SM CLR 22/19 A2995 RMK AO2 SLP143 T02170189 10283 20217 52014 $=\n201811260053 METAR KMLB 260053Z 07004KT 10SM CLR 21/18 A2996 RMK AO2 SLP143 T02110183 $=\n201811260153 METAR KMLB 260153Z 00000KT 10SM CLR 21/19 A2996 RMK AO2 SLP146 T02110189 $=\n201811260253 METAR KMLB 260253Z 00000KT 10SM CLR 20/18 A2996 RMK AO2 SLP146 T02000178 51003 $=\n201811260353 METAR KMLB 260353Z 28004KT 10SM CLR 18/17 A2997 RMK AO2 SLP147 T01780167 $=\n201811260453 METAR KMLB 260453Z AUTO 00000KT 10SM CLR 19/18 A2995 RMK AO2 SLP142 T01890178 402830178 $=\n201811260553 METAR KMLB 260553Z AUTO 24003KT 10SM R09R/5000VP6000FT CLR 18/17 A2994 RMK AO2 SLP137 T01780167 10217 20178 58008 $=\n201811260653 METAR KMLB 260653Z AUTO 21003KT 5SM R09R/3000V5500FT BR SCT002 18/17 A2993 RMK AO2 SLP133 T01780172 $=\n\n</pre>\n\n</body>\n</html>\n"
    },
    {
        "params": {
            "lugar": "KMLB",
            "fmt": "txt",
            "hora": "01",
            "lang": "en",
            "nil": "NO",
            "day": "19",
            "ano": "2021",
            "ord": "DIR",
            "dayf": "19",
            "horaf": "09",
            "anof": "2021",
            "mes": "12",
            "send": "send",
            "minf": "56",
            "tipo": "SA",
            "mesf": "12"
        },
        "text": "<!-- $Id$ -->\n<!DOCTYPE HTML PUBLIC \"-//W3C//DTD HTML 4.01 Transitional//EN\">\n<html>\n<head>\n  <title>Display metars</title>\n  <meta http-equiv=\"Content-Type\" content=\"text/html; charset=utf-8\">\n  <meta name=\"Author\" content=\"G. Ballester\">\n  <meta name=\"GENERATOR\" content=\"Quanta Plus\">\n  <meta name=\"robots\" content=\"index,nofollow\">\n  <meta name=\"keywords\" content=\"metar, speci, taf, weather reports\">\n  <meta name=viewport content=\"width=device-width, initial-scale=1\">  \n  <link rel=\"stylesheet\" href=\"/ogimet.css\">\n  <link rel=\"stylesheet\" type=\"text/css\" href=\"//cdnjs.cloudflare.com/ajax/libs/cookieconsent2/3.0.3/cookieconsent.min.css\" />\n<script src=\"//cdnjs.cloudflare.com/ajax/libs/cookieconsent2/3.0.3/cookieconsent.min.js\"></script>\n<script>\nwindow.addEventListener(\"load\", function(){\nwindow.cookieconsent.initialise({\n  \"palette\": {\n    \"popup\": {\n      \"background\": \"#eb6c44\",\n      \"text\": \"#ffffff\"\n    },\n    \"button\": {\n      \"background\": \"#f5d948\"\n    }\n  },\n  \"theme\": \"classic\",\n  \"position\": \"top\",\n  \"content\": {\n    \"message\": \"Las cookies de este sitio web se usan para personalizar el contenido y los anuncios, ofrecer funciones de redes sociales y analizar el tr\u00e1fico. Ademas, compartimos el uso que haga del sitio web con nuestros partners de redes sociales, publicidad y an\u00e1lisis web, quienes pueden combinarla con otra informaci\u00f3n que les haya proporcionado o que hayan recopilado a partir del uso que haya hecho de sus servicios. Si continua navegando en estas p\u00e1ginas consideramos que acepta su uso. \",\n    \"dismiss\": \"Entendido\",\n    \"link\": \"Saber m\u00e1s\",\n    \"href\": \"/cookiespolicy.phtml\"\n  }\n})});\n</script>\n</head>\n<body>\n<pre>\n##########################################################\n# Query made at 06/26/2021 20:27:53 UTC\n# Time interval: from 12/19/2021 01:00  to 12/19/2021 09:56  UTC\n##########################################################\n\n##########################################################\n# KMLB, Melbourne, Melbourne International Airport (United States)\n# WMO index: 72204\n# Latitude 28-06-10N. Longitude 080-38-45W. Altitude 10 m.\n##########################################################\n\n# No METAR/SPECI reports frome KMLB in database.\n\n# No short TAF reports from KMLB in databse.\n\n# No large TAF reports from KMLB in databse.\n\n</pre>\n\n</body>\n</html>\n"
    },
    {
        "params": {
            "lugar": "KMLB",
            "minf": "52",
            "fmt": "txt",
            "send": "send",
            "anof": "2017",
            "mes": "01",
            "horaf": "07",
            "lang": "en",
            "nil": "NO",
            "mesf": "01",
            "ord": "DIR",
            "hora": "21",
            "dayf": "06",
            "day": "05",
            "tipo": "SA",
            "ano": "2017"
        },
        "text": "<!-- $Id$ -->\n<!DOCTYPE HTML PUBLIC \"-//W3C//DTD HTML 4.01 Transitional//EN\">\n<html>\n<head>\n  <title>Display metars</title>\n  <meta http-equiv=\"Content-Type\" content=\"text/html; charset=utf-8\">\n  <meta name=\"Author\" content=\"G. Ballester\">\n  <meta name=\"GENERATOR\" content=\"Quanta Plus\">\n  <meta name=\"robots\" content=\"index,nofollow\">\n  <meta name=\"keywords\" content=\"metar, speci, taf, weather reports\">\n  <meta name=viewport content=\"width=device-width, initial-scale=1\">  \n  <link rel=\"stylesheet\" href=\"/ogimet.css\">\n  <link rel=\"stylesheet\" type=\"text/css\" href=\"//cdnjs.cloudflare.com/ajax/libs/cookieconsent2/3.0.3/cookieconsent.min.css\" />\n<script src=\"//cdnjs.cloudflare.com/ajax/libs/cookieconsent2/3.0.3/cookieconsent.min.js\"></script>\n<script>\nwindow.addEventListener(\"load\", function(){\nwindow.cookieconsent.initialise({\n  \"palette\": {\n    \"popup\": {\n      \"background\": \"#eb6c44\",\n      \"text\": \"#ffffff\"\n    },\n    \"button\": {\n      \"background\": \"#f5d948\"\n    }\n  },\n  \"theme\": \"classic\",\n  \"position\": \"top\",\n  \"content\": {\n    \"message\": \"Las cookies de este sitio web se usan para personalizar el contenido y los anuncios, ofrecer funciones de redes sociales y analizar el tr\u00e1fico. Ademas, compartimos el uso que haga del sitio web con nuestros partners de redes sociales, publicidad y an\u00e1lisis web, quienes pueden combinarla con otra informaci\u00f3n que les haya proporcionado o que hayan recopilado a partir del uso que haya hecho de sus servicios. Si continua navegando en estas p\u00e1ginas consideramos que acepta su uso. \",\n    \"dismiss\": \"Entendido\",\n    \"link\": \"Saber m\u00e1s\",\n    \"href\": \"/cookiespolicy.phtml\"\n  }\n})});\n</script>\n</head>\n<body>\n<pre>\n##########################################################\n# Query made at 06/26/2021 20:27:55 UTC\n# Time interval: from 01/05/2017 21:00  to 01/06/2017 07:52  UTC\n##########################################################\n\n##########################################################\n# KMLB, Melbourne, Melbourne International Airport (United States)\n# WMO index: 72204\n# Latitude 28-06-10N. Longitude 080-38-45W. Altitude 10 m.\n##########################################################\n\n###################################\n#  METAR/SPECI from KMLB\n###################################\n201701052153 METAR KMLB 052153Z 25008KT 10SM CLR 23/13 A2989 RMK AO2 SLP120 T02330128=\n201701052253 METAR KMLB 052253Z 28004KT 10SM CLR 19/13 A2989 RMK AO2 SLP122 T01940128=\n201701052353 METAR KMLB 052353Z 29004KT 10SM CLR 18/13 A2992 RMK AO2 SLP129 T01830133 10250 20183 53013=\n201701060053 METAR KMLB 060053Z 28003KT 10SM CLR 17/13 A2993 RMK AO2 SLP134 T01720133=\n201701060153 METAR KMLB 060153Z 00000KT 10SM CLR 16/13 A2995 RMK AO2 SLP140 T01610133=\n201701060253 METAR KMLB 060253Z 00000KT 10SM CLR 15/13 A2996 RMK AO2 SLP144 T01500133 51015=\n201701060353 METAR KMLB 060353Z 27003KT 10SM CLR 15/13 A2997 RMK AO2 SLP147 T01500128=\n201701060453 METAR KMLB 060453Z 29006KT 8SM CLR 13/12 A2997 RMK AO2 SLP147 T01330122 402500117=\n201701060553 METAR KMLB 060553Z AUTO 28003KT 8SM CLR 14/13 A2997 RMK AO2 SLP147 T01390133 10189 20133 50002=\n201701060653 METAR KMLB 060653Z AUTO 30003KT 8SM CLR 13/13 A2996 RMK AO2 SLP146 T01330128=\n\n</pre>\n\n</body>\n</html>\n"
    },
    {
        "params": {
            "horaf": "17",
            "lugar": "KMLB",
            "fmt": "txt",
            "hora": "09",
            "ano": "2024",
            "mes": "04",
            "lang": "en",
            "nil": "NO",
            "dayf": "10",
            "anof": "2024",
            "ord": "DIR",
            "day": "10",
            "minf": "39",
            "mesf": "04",
            "send": "send",
            "tipo": "SA"
        },
        "text": "<!-- $Id$ -->\n<!DOCTYPE HTML PUBLIC \"-//W3C//DTD HTML 4.01 Transitional//EN\">\n<html>\n<head>\n  <title>Display metars</title>\n  <meta http-equiv=\"Content-Type\" content=\"text/html; charset=utf-8\">\n  <meta name=\"Author\" content=\"G. Ballester\">\n  <meta name=\"GENERATOR\" content=\"Quanta Plus\">\n  <meta name=\"robots\" content=\"index,nofollow\">\n  <meta name=\"keywords\" content=\"metar, speci, taf, weather reports\">\n  <meta name=viewport content=\"width=device-width, initial-scale=1\">  \n  <link rel=\"stylesheet\" href=\"/ogimet.css\">\n  <link rel=\"stylesheet\" type=\"text/css\" href=\"//cdnjs.cloudflare.com/ajax/libs/cookieconsent2/3.0.3/cookieconsent.min.css\" />\n<script src=\"//cdnjs.cloudflare.com/ajax/libs/cookieconsent2/3.0.3/cookieconsent.min.js\"></script>\n<script>\nwindow.addEventListener(\"load\", function(){\nwindow.cookieconsent.initialise({\n  \"palette\": {\n    \"popup\": {\n      \"background\": \"#eb6c44\",\n      \"text\": \"#ffffff\"\n    },\n    \"button\": {\n      \"background\": \"#f5d948\"\n    }\n  },\n  \"theme\": \"classic\",\n  \"position\": \"top\",\n  \"content\": {\n    \"message\": \"Las cookies de este sitio web se usan para personalizar el contenido y los anuncios, ofrecer funciones de redes sociales y analizar el tr\u00e1fico. Ademas, compartimos el uso que haga del sitio web con nuestros partners de redes sociales, publicidad y an\u00e1lisis web, quienes pueden combinarla con otra informaci\u00f3n que les haya proporcionado o que hayan recopilado a partir del uso que haya hecho de sus servicios. Si continua navegando en estas p\u00e1ginas consideramos que acepta su uso. \",\n    \"dismiss\": \"Entendido\",\n    \"link\": \"Saber m\u00e1s\",\n    \"href\": \"/cookiespolicy.phtml\"\n  }\n})});\n</script>\n</head>\n<body>\n<pre>\n##########################################################\n# Query made at 06/26/2021 20:27:56 UTC\n# Time interval: from 04/10/2024 09:00  to 04/10/2024 17:39  UTC\n##########################################################\n\n##########################################################\n# KMLB, Melbourne, Melbourne International Airport (United States)\n# WMO index: 72204\n# Latitude 28-06-10N. Longitude 080-38-45W. Altitude 10 m.\n##########################################################\n\n# No METAR/SPECI reports frome KMLB in database.\n\n# No short TAF reports from KMLB in databse.\n\n# No large TAF reports from KMLB in databse.\n\n</pre>\n\n</body>\n</html>\n"
    },
    {
        "params": {
            "ano": "2007",
            "lugar": "KMLB",
            "hora": "16",
            "fmt": "txt",
            "mesf": "11",
            "send": "send",
            "minf": "24",
            "day": "15",
            "lang": "en",
            "nil": "NO",
            "anof": "2007",
            "ord": "DIR",
            "mes": "11",
            "dayf": "16",
            "tipo": "SA",
            "horaf": "02"
        },
        "text": "<!-- $Id$ -->\n<!DOCTYPE HTML PUBLIC \"-//W3C//DTD HTML 4.01 Transitional//EN\">\n<html>\n<head>\n  <title>Display metars</title>\n  <meta http-equiv=\"Content-Type\" content=\"text/html; charset=utf-8\">\n  <meta name=\"Author\" content=\"G. Ballester\">\n  <meta name=\"GENERATOR\" content=\"Quanta Plus\">\n  <meta name=\"robots\" content=\"index,nofollow\">\n  <meta name=\"keywords\" content=\"metar, speci, taf, weather reports\">\n  <meta name=viewport content=\"width=device-width, initial-scale=1\">  \n  <link rel=\"stylesheet\" href=\"/ogimet.css\">\n  <link rel=\"stylesheet\" type=\"text/css\" href=\"//cdnjs.cloudflare.com/ajax/libs/cookieconsent2/3.0.3/cookieconsent.min.css\" />\n<script src=\"//cdnjs.cloudflare.com/ajax/libs/cookieconsent2/3.0.3/cookieconsent.min.js\"></script>\n<script>\nwindow.addEventListener(\"load\", function(){\nwindow.cookieconsent.initialise({\n  \"palette\": {\n    \"popup\": {\n      \"background\": \"#eb6c44\",\n      \"text\": \"#ffffff\"\n    },\n    \"button\": {\n      \"background\": \"#f5d948\"\n    }\n  },\n  \"theme\": \"classic\",\n  \"position\": \"top\",\n  \"content\": {\n    \"message\": \"Las cookies de este sitio web se usan para personalizar el contenido y los anuncios, ofrecer funciones de redes sociales y analizar el tr\u00e1fico. Ademas, compartimos el uso que haga del sitio web con nuestros partners de redes sociales, publicidad y an\u00e1lisis web, quienes pueden combinarla con otra informaci\u00f3n que les haya proporcionado o que hayan recopilado a partir del uso que haya hecho de sus servicios. Si continua navegando en estas p\u00e1ginas consideramos que acepta su uso. \",\n    \"dismiss\": \"Entendido\",\n    \"link\": \"Saber m\u00e1s\",\n    \"href\": \"/cookiespolicy.phtml\"\n  }\n})});\n</script>\n</head>\n<body>\n<pre>\n##########################################################\n# Query made at 06/26/2021 20:31:00 UTC\n# Time interval: from 11/15/2007 16:00  to 11/16/2007 02:24  UTC\n##########################################################\n\n##########################################################\n# KMLB, Melbourne, Melbourne International Airport (United States)\n# WMO index: 72204\n# Latitude 28-06-10N. Longitude 080-38-45W. Altitude 10 m.\n##########################################################\n\n###################################\n#  METAR/SPECI from KMLB\n###################################\n200711151653 METAR KMLB 151653Z 26010KT 10SM CLR 27/15 A2995 RMK AO2 SLP140 T02670150=\n200711151753 METAR KMLB 151753Z 27011G16KT 10SM CLR 28/15 A2991 RMK AO2 SLP127 60001 T02780150 10278 20156 58029=\n200711151853 METAR KMLB 151853Z 27009KT 10SM CLR 28/14 A2988 RMK AO2 SLP116 T02780144=\n200711151953 METAR KMLB 151953Z 26011G20KT 10SM CLR 28/13 A2986 RMK AO2 SLP112 T02830133=\n200711152053 METAR KMLB 152053Z 25010KT 10SM CLR 27/13 A2985 RMK AO2 SLP108 T02720133 56019=\n200711152153 METAR KMLB 152153Z 25009KT 10SM CLR 26/13 A2986 RMK AO2 SLP109 T02610133=\n200711152253 METAR KMLB 152253Z 26007KT 10SM CLR 24/15 A2987 RMK AO2 SLP114 T02440150=\n200711152353 METAR KMLB 152353Z 26007KT 10SM CLR 24/15 A2989 RMK AO2 SLP121 T02390150 10283 20233 53013=\n200711160053 METAR KMLB 160053Z AUTO 30014G19KT 10SM FEW035 BKN044 OVC050 23/17 A2993 RMK AO2 SLP133 T02330167 TSNO=\n200711160153 METAR KMLB 160153Z AUTO 34017G29KT 10SM SCT048 20/12 A2996 RMK AO2 PK WND 34029/0151 SLP144 T02000122 TSNO=\n\n</pre>\n\n</body>\n</html>\n"
    },
    {
        "params": {
            "lugar": "KMLB",
            "fmt": "txt",
            "ano": "2022",
            "anof": "2022",
            "mes": "04",
            "lang": "en",
            "nil": "NO",
            "hora": "08",
            "horaf": "16",
            "ord": "DIR",
            "dayf": "03",
            "minf": "47",
            "day": "03",
            "mesf": "04",
            "send": "send",
            "tipo": "SA"
        },
        "text": "<!-- $Id$ -->\n<!DOCTYPE HTML PUBLIC \"-//W3C//DTD HTML 4.01 Transitional//EN\">\n<html>\n<head>\n  <title>Display metars</title>\n  <meta http-equiv=\"Content-Type\" content=\"text/html; charset=utf-8\">\n  <meta name=\"Author\" content=\"G. Ballester\">\n  <meta name=\"GENERATOR\" content=\"Quanta Plus\">\n  <meta name=\"robots\" content=\"index,nofollow\">\n  <meta name=\"keywords\" content=\"metar, speci, taf, weather reports\">\n  <meta name=viewport content=\"width=device-width, initial-scale=1\">  \n  <link rel=\"stylesheet\" href=\"/ogimet.css\">\n  <link rel=\"stylesheet\" type=\"text/css\" href=\"//cdnjs.cloudflare.com/ajax/libs/cookieconsent2/3.0.3/cookieconsent.min.css\" />\n<script src=\"//cdnjs.cloudflare.com/ajax/libs/cookieconsent2/3.0.3/cookieconsent.min.js\"></script>\n<script>\nwindow.addEventListener(\"load\", function(){\nwindow.cookieconsent.initialise({\n  \"palette\": {\n    \"popup\": {\n      \"background\": \"#eb6c44\",\n      \"text\": \"#ffffff\"\n    },\n    \"button\": {\n      \"background\": \"#f5d948\"\n    }\n  },\n  \"theme\": \"classic\",\n  \"position\": \"top\",\n  \"content\": {\n    \"message\": \"Las cookies de este sitio web se usan para personalizar el contenido y los anuncios, ofrecer funciones de redes sociales y analizar el tr\u00e1fico. Ademas, compartimos el uso que haga del sitio web con nuestros partners de redes sociales, publicidad y an\u00e1lisis web, quienes pueden combinarla con otra informaci\u00f3n que les haya proporcionado o que hayan recopilado a partir del uso que haya hecho de sus servicios. Si continua navegando en estas p\u00e1ginas consideramos que acepta su uso. \",\n    \"dismiss\": \"Entendido\",\n    \"link\": \"Saber m\u00e1s\",\n    \"href\": \"/cookiespolicy.phtml\"\n  }\n})});\n</script>\n</head>\n<body>\n<pre>\n##########################################################\n# Query made at 06/26/2021 20:31:01 UTC\n# Time interval: from 04/03/2022 08:00  to 04/03/2022 16:47  UTC\n##########################################################\n\n##########################################################\n# KMLB, Melbourne, Melbourne International Airport (United States)\n# WMO index: 72204\n# Latitude 28-06-10N. Longitude 080-38-45W. Altitude 10 m.\n##########################################################\n\n# No METAR/SPECI reports frome KMLB in database.\n\n# No short TAF reports from KMLB in databse.\n\n# No large TAF reports from KMLB in databse.\n\n</pre>\n\n</body>\n</html>\n"
    },
    {
        "params": {
            "day": "30",
            "lugar": "KMLB",
            "dayf": "31",
            "fmt": "txt",
            "minf": "23",
            "lang": "en",
            "nil": "NO",
            "hora": "17",
            "ano": "2021",
            "ord": "DIR",
            "anof": "2021",
            "horaf": "01",
            "mes": "05",
            "send": "send",
            "tipo": "SA",
            "mesf": "05"
        },
        "text": "<!-- $Id$ -->\n<!DOCTYPE HTML PUBLIC \"-//W3C//DTD HTML 4.01 Transitional//EN\">\n<html>\n<head>\n  <title>Display metars</title>\n  <meta http-equiv=\"Content-Type\" content=\"text/html; charset=utf-8\">\n  <meta name=\"Author\" content=\"G. Ballester\">\n  <meta name=\"GENERATOR\" content=\"Quanta Plus\">\n  <meta name=\"robots\" content=\"index,nofollow\">\n  <meta name=\"keywords\" content=\"metar, speci, taf, weather reports\">\n  <meta name=viewport content=\"width=device-width, initial-scale=1\">  \n  <link rel=\"stylesheet\" href=\"/ogimet.css\">\n  <link rel=\"stylesheet\" type=\"text/css\" href=\"//cdnjs.cloudflare.com/ajax/libs/cookieconsent2/3.0.3/cookieconsent.min.css\" />\n<script src=\"//cdnjs.cloudflare.com/ajax/libs/cookieconsent2/3.0.3/cookieconsent.min.js\"></script>\n<script>\nwindow.addEventListener(\"load\", function(){\nwindow.cookieconsent.initialise({\n  \"palette\": {\n    \"popup\": {\n      \"background\": \"#eb6c44\",\n      \"text\": \"#ffffff\"\n    },\n    \"button\": {\n      \"background\": \"#f5d948\"\n    }\n  },\n  \"theme\": \"classic\",\n  \"position\": \"top\",\n  \"content\": {\n    \"message\": \"Las cookies de este sitio web se usan para personalizar el contenido y los anuncios, ofrecer funciones de redes sociales y analizar el tr\u00e1fico. Ademas, compartimos el uso que haga del sitio web con nuestros partners de redes sociales, publicidad y an\u00e1lisis web, quienes pueden combinarla con otra informaci\u00f3n que les haya proporcionado o que hayan recopilado a partir del uso que haya hecho de sus servicios. Si continua navegando en estas p\u00e1ginas consideramos que acepta su uso. \",\n    \"dismiss\": \"Entendido\",\n    \"link\": \"Saber m\u00e1s\",\n    \"href\": \"/cookiespolicy.phtml\"\n  }\n})});\n</script>\n</head>\n<body>\n<pre>\n##########################################################\n# Query made at 06/26/2021 20:37:39 UTC\n# Time interval: from 05/30/2021 17:00  to 05/31/2021 01:23  UTC\n##########################################################\n\n##########################################################\n# KMLB, Melbourne, Melbourne International Airport (United States)\n# WMO index: 72204\n# Latitude 28-06-10N. Longitude 080-38-45W. Altitude 10 m.\n##########################################################\n\n###################################\n#  METAR/SPECI from KMLB\n###################################\n202105301753 METAR KMLB 301753Z 10012KT 10SM FEW037 SCT047 BKN060 29/22 A3002 RMK AO2 SLP165 VCSH T02940217 10306 20233 58006 $=\n202105301853 METAR KMLB 301853Z 11009KT 10SM -TSRA SCT030 SCT042 BKN049 27/22 A3001 RMK AO2 LTG DSNT W RAB40 TSB48 SLP161 P0000 T02720222 $=\n202105301953 METAR KMLB 301953Z 12008KT 10SM FEW020 27/22 A3000 RMK AO2 LTG DSNT ALQDS RAE37 TSE31 SLP160 VCSH P0000 T02670217 $=\n202105302053 METAR KMLB 302053Z 08010KT 10SM CLR 28/22 A2999 RMK AO2 LTG DSNT N AND NW SLP155 60000 T02780217 58010 $=\n202105302153 METAR KMLB 302153Z 11010KT 10SM CLR 27/22 A3002 RMK AO2 SLP163 T02720217 $=\n202105302253 METAR KMLB 302253Z 12007KT 10SM CLR 27/22 A3003 RMK AO2 SLP167 T02670217 $=\n202105302353 METAR KMLB 302353Z 13007KT 10SM -RA FEW065 SCT080 BKN110 27/22 A3006 RMK AO2 RAB38 SLP177 P0000 60000 T02670222 10294 20261 53022 $=\n202105310053 METAR KMLB 310053Z 15005KT 10SM -RA FEW040 26/23 A3006 RMK AO2 RAE19B35 SLP178 P0001 T02560228 $=\n\n</pre>\n\n</body>\n</html>\n"
    },
    {
        "params": {
            "ano": "2005",
            "lugar": "KMLB",
            "day": "07",
            "fmt": "txt",
            "hora": "16",
            "send": "send",
            "anof": "2005",
            "dayf": "08",
            "lang": "en",
            "nil": "NO",
            "ord": "DIR",
            "minf": "36",
            "mes": "12",
            "horaf": "00",
            "tipo": "SA",
            "mesf": "12"
        },
        "text": "<!-- $Id$ -->\n<!DOCTYPE HTML PUBLIC \"-//W3C//DTD HTML 4.01 Transitional//EN\">\n<html>\n<head>\n  <title>Display metars</title>\n  <meta http-equiv=\"Content-Type\" content=\"text/html; charset=utf-8\">\n  <meta name=\"Author\" content=\"G. Ballester\">\n  <meta name=\"GENERATOR\" content=\"Quanta Plus\">\n  <meta name=\"robots\" content=\"index,nofollow\">\n  <meta name=\"keywords\" content=\"metar, speci, taf, weather reports\">\n  <meta name=viewport content=\"width=device-width, initial-scale=1\">  \n  <link rel=\"stylesheet\" href=\"/ogimet.css\">\n  <link rel=\"stylesheet\" type=\"text/css\" href=\"//cdnjs.cloudflare.com/ajax/libs/cookieconsent2/3.0.3/cookieconsent.min.css\" />\n<script src=\"//cdnjs.cloudflare.com/ajax/libs/cookieconsent2/3.0.3/cookieconsent.min.js\"></script>\n<script>\nwindow.addEventListener(\"load\", function(){\nwindow.cookieconsent.initialise({\n  \"palette\": {\n    \"popup\": {\n      \"background\": \"#eb6c44\",\n      \"text\": \"#ffffff\"\n    },\n    \"button\": {\n      \"background\": \"#f5d948\"\n    }\n  },\n  \"theme\": \"classic\",\n  \"position\": \"top\",\n  \"content\": {\n    \"message\": \"Las cookies de este sitio web se usan para personalizar el contenido y los anuncios, ofrecer funciones de redes sociales y analizar el tr\u00e1fico. Ademas, compartimos el uso que haga del sitio web con nuestros partners de redes sociales, publicidad y an\u00e1lisis web, quienes pueden combinarla con otra informaci\u00f3n que les haya proporcionado o que hayan recopilado a partir del uso que haya hecho de sus servicios. Si continua navegando en estas p\u00e1ginas consideramos que acepta su uso. \",\n    \"dismiss\": \"Entendido\",\n    \"link\": \"Saber m\u00e1s\",\n    \"href\": \"/cookiespolicy.phtml\"\n  }\n})});\n</script>\n</head>\n<body>\n<pre>\n##########################################################\n# Query made at 06/26/2021 20:38:16 UTC\n# Time interval: from 12/07/2005 16:00  to 12/08/2005 00:36  UTC\n##########################################################\n\n##########################################################\n# KMLB, Melbourne, Melbourne International Airport (United States)\n# WMO index: 72204\n# Latitude 28-06-10N. Longitude 080-38-45W. Altitude 10 m.\n##########################################################\n\n###################################\n#  METAR/SPECI from KMLB\n###################################\n200512071653 METAR KMLB 071653Z 08013KT 10SM BKN025 OVC041 22/16 A3022 RMK AO2 SLP232 T02170156=\n200512071753 METAR KMLB 071753Z 08017G21KT 10SM BKN025 22/16 A3019 RMK AO2 SLP222 T02220156 10222 20206 58014=\n200512071800 SPECI KMLB 071800Z 08016KT 10SM OVC047 22/16 A3018 RMK AO2=\n200512071853 METAR KMLB 071853Z 08013G19KT 10SM BKN036 OVC047 22/15 A3018 RMK AO2 SLP217 T02170150=\n200512071953 METAR KMLB 071953Z 09014G20KT 7SM -RA BKN026 OVC033 20/17 A3016 RMK AO2 RAB23 SLP214 P0000 T02000167=\n200512072053 METAR KMLB 072053Z 08014KT 10SM BKN026 OVC037 21/17 A3017 RMK AO2 RAE11 SLP217 P0000 60000 T02060167 55005=\n200512072100 SPECI KMLB 072100Z 09015KT 10SM FEW033 OVC047 21/16 A3017 RMK AO2=\n200512072153 METAR KMLB 072153Z 09017KT 10SM OVC049 21/16 A3018 RMK AO2 SLP220 T02110156=\n200512072253 METAR KMLB 072253Z 08015KT 10SM BKN050 OVC060 22/16 A3020 RMK AO2 SLP226 T02170156=\n200512072353 METAR KMLB 072353Z 09017G23KT 10SM OVC043 22/16 A3022 RMK AO2 SLP232 60000 T02170156 10222 20200 53015=\n\n</pre>\n\n</body>\n</html>\n"
    },
    {
        "params": {
            "ano": "2005",
            "lugar": "KMLB",
            "send": "send",
            "fmt": "txt",
            "anof": "2005",
            "mes": "01",
            "lang": "en",
            "nil": "NO",
            "hora": "17",
            "mesf": "01",
            "ord": "DIR",
            "dayf": "06",
            "minf": "34",
            "horaf": "01",
            "day": "05",
            "tipo": "SA"
        },
        "text": "<!-- $Id$ -->\n<!DOCTYPE HTML PUBLIC \"-//W3C//DTD HTML 4.01 Transitional//EN\">\n<html>\n<head>\n  <title>Display metars</title>\n  <meta http-equiv=\"Content-Type\" content=\"text/html; charset=utf-8\">\n  <meta name=\"Author\" content=\"G. Ballester\">\n  <meta name=\"GENERATOR\" content=\"Quanta Plus\">\n  <meta name=\"robots\" content=\"index,nofollow\">\n  <meta name=\"keywords\" content=\"metar, speci, taf, weather reports\">\n  <meta name=viewport content=\"width=device-width, initial-scale=1\">  \n  <link rel=\"stylesheet\" href=\"/ogimet.css\">\n  <link rel=\"stylesheet\" type=\"text/css\" href=\"//cdnjs.cloudflare.com/ajax/libs/cookieconsent2/3.0.3/cookieconsent.min.css\" />\n<script src=\"//cdnjs.cloudflare.com/ajax/libs/cookieconsent2/3.0.3/cookieconsent.min.js\"></script>\n<script>\nwindow.addEventListener(\"load\", function(){\nwindow.cookieconsent.initialise({\n  \"palette\": {\n    \"popup\": {\n      \"background\": \"#eb6c44\",\n      \"text\": \"#ffffff\"\n    },\n    \"button\": {\n      \"background\": \"#f5d948\"\n    }\n  },\n  \"theme\": \"classic\",\n  \"position\": \"top\",\n  \"content\": {\n    \"message\": \"Las cookies de este sitio web se usan para personalizar el contenido y los anuncios, ofrecer funciones de redes sociales y analizar el tr\u00e1fico. Ademas, compartimos el uso que haga del sitio web con nuestros partners de redes sociales, publicidad y an\u00e1lisis web, quienes pueden combinarla con otra informaci\u00f3n que les haya proporcionado o que hayan recopilado a partir del uso que haya hecho de sus servicios. Si continua navegando en estas p\u00e1ginas consideramos que acepta su uso. \",\n    \"dismiss\": \"Entendido\",\n    \"link\": \"Saber m\u00e1s\",\n    \"href\": \"/cookiespolicy.phtml\"\n  }\n})});\n</script>\n</head>\n<body>\n<pre>\n##########################################################\n# Query made at 06/26/2021 20:42:28 UTC\n# Time interval: from 01/05/2005 17:00  to 01/06/2005 01:34  UTC\n##########################################################\n\n##########################################################\n# KMLB, Melbourne, Melbourne International Airport (United States)\n# WMO index: 72204\n# Latitude 28-06-10N. Longitude 080-38-45W. Altitude 10 m.\n##########################################################\n\n###################################\n#  METAR/SPECI from KMLB\n###################################\n200501051753 METAR KMLB 051753Z 13010KT 10SM CLR 25/17 A3018 RMK AO2 SLP219 T02500167 10250 20150 58021=\n200501051853 METAR KMLB 051853Z 12010KT 10SM FEW020 25/17 A3015 RMK AO2 SLP209 T02500172=\n200501051953 METAR KMLB 051953Z 13012KT 10SM CLR 24/18 A3013 RMK AO2 SLP203 T02390178=\n200501052053 METAR KMLB 052053Z 14009KT 10SM FEW020 24/18 A3014 RMK AO2 SLP204 T02390178 55015=\n200501052153 METAR KMLB 052153Z 11008KT 10SM CLR 23/18 A3014 RMK AO2 SLP206 T02280183=\n200501052253 METAR KMLB 052253Z 11006KT 10SM FEW100 22/18 A3015 RMK AO2 SLP209 T02170183=\n200501052353 METAR KMLB 052353Z 12005KT 10SM BKN060 22/19 A3016 RMK AO2 SLP210 T02170189 10250 20217 51006=\n200501060053 METAR KMLB 060053Z 13005KT 10SM CLR 21/19 A3016 RMK AO2 SLP211 T02110194=\n\n</pre>\n\n</body>\n</html>\n"
    },
    {
        "params": {
            "ano": "2005",
            "lugar": "KMLB",
            "dayf": "11",
            "fmt": "txt",
            "minf": "14",
            "anof": "2005",
            "mes": "01",
            "lang": "en",
            "nil": "NO",
            "hora": "17",
            "mesf": "01",
            "ord": "DIR",
            "day": "10",
            "horaf": "01",
            "send": "send",
            "tipo": "SA"
        },
        "text": "<!-- $Id$ -->\n<!DOCTYPE HTML PUBLIC \"-//W3C//DTD HTML 4.01 Transitional//EN\">\n<html>\n<head>\n  <title>Display metars</title>\n  <meta http-equiv=\"Content-Type\" content=\"text/html; charset=utf-8\">\n  <meta name=\"Author\" content=\"G. Ballester\">\n  <meta name=\"GENERATOR\" content=\"Quanta Plus\">\n  <meta name=\"robots\" content=\"index,nofollow\">\n  <meta name=\"keywords\" content=\"metar, speci, taf, weather reports\">\n  <meta name=viewport content=\"width=device-width, initial-scale=1\">  \n  <link rel=\"stylesheet\" href=\"/ogimet.css\">\n  <link rel=\"stylesheet\" type=\"text/css\" href=\"//cdnjs.cloudflare.com/ajax/libs/cookieconsent2/3.0.3/cookieconsent.min.css\" />\n<script src=\"//cdnjs.cloudflare.com/ajax/libs/cookieconsent2/3.0.3/cookieconsent.min.js\"></script>\n<script>\nwindow.addEventListener(\"load\", function(){\nwindow.cookieconsent.initialise({\n  \"palette\": {\n    \"popup\": {\n      \"background\": \"#eb6c44\",\n      \"text\": \"#ffffff\"\n    },\n    \"button\": {\n      \"background\": \"#f5d948\"\n    }\n  },\n  \"theme\": \"classic\",\n  \"position\": \"top\",\n  \"content\": {\n    \"message\": \"Las cookies de este sitio web se usan para personalizar el contenido y los anuncios, ofrecer funciones de redes sociales y analizar el tr\u00e1fico. Ademas, compartimos el uso que haga del sitio web con nuestros partners de redes sociales, publicidad y an\u00e1lisis web, quienes pueden combinarla con otra informaci\u00f3n que les haya proporcionado o que hayan recopilado a partir del uso que haya hecho de sus servicios. Si continua navegando en estas p\u00e1ginas consideramos que acepta su uso. \",\n    \"dismiss\": \"Entendido\",\n    \"link\": \"Saber m\u00e1s\",\n    \"href\": \"/cookiespolicy.phtml\"\n  }\n})});\n</script>\n</head>\n<body>\n<pre>\n##########################################################\n# Query made at 06/26/2021 20:42:30 UTC\n# Time interval: from 01/10/2005 17:00  to 01/11/2005 01:14  UTC\n##########################################################\n\n##########################################################\n# KMLB, Melbourne, Melbourne International Airport (United States)\n# WMO index: 72204\n# Latitude 28-06-10N. Longitude 080-38-45W. Altitude 10 m.\n##########################################################\n\n###################################\n#  METAR/SPECI from KMLB\n###################################\n200501101753 METAR KMLB 101753Z 10008KT 060V120 10SM BKN025 25/17 A3026 RMK AO2 SLP244 T02500167 10250 20139 58022=\n200501101853 METAR KMLB 101853Z 10007KT 10SM SCT025 25/17 A3023 RMK AO2 SLP235 T02500167=\n200501101953 METAR KMLB 101953Z 11007KT 10SM SCT025 24/17 A3022 RMK AO2 SLP232 T02440172=\n200501102053 METAR KMLB 102053Z 10007KT 10SM FEW040 24/17 A3021 RMK AO2 SLP228 T02390172 56017=\n200501102153 METAR KMLB 102153Z 10007KT 10SM CLR 23/17 A3020 RMK AO2 SLP225 T02330167=\n200501102253 METAR KMLB 102253Z 10006KT 10SM CLR 22/18 A3019 RMK AO2 SLP223 T02170178=\n200501102353 METAR KMLB 102353Z 12005KT 10SM CLR 21/18 A3020 RMK AO2 SLP226 T02110183 10250 20211 55002=\n200501110053 METAR KMLB 110053Z 00000KT 10SM CLR 19/17 A3022 RMK AO2 SLP234 T01940172=\n\n</pre>\n\n</body>\n</html>\n"
    },
    {
        "params": {
            "ano": "2005",
            "lugar": "KMLB",
            "horaf": "17",
            "fmt": "txt",
            "send": "send",
            "anof": "2005",
            "mes": "01",
            "minf": "19",
            "lang": "en",
            "nil": "NO",
            "mesf": "01",
            "hora": "07",
            "ord": "DIR",
            "dayf": "23",
            "day": "23",
            "tipo": "SA"
        },
        "text": "<!-- $Id$ -->\n<!DOCTYPE HTML PUBLIC \"-//W3C//DTD HTML 4.01 Transitional//EN\">\n<html>\n<head>\n  <title>Display metars</title>\n  <meta http-equiv=\"Content-Type\" content=\"text/html; charset=utf-8\">\n  <meta name=\"Author\" content=\"G. Ballester\">\n  <meta name=\"GENERATOR\" content=\"Quanta Plus\">\n  <meta name=\"robots\" content=\"index,nofollow\">\n  <meta name=\"keywords\" content=\"metar, speci, taf, weather reports\">\n  <meta name=viewport content=\"width=device-width, initial-scale=1\">  \n  <link rel=\"stylesheet\" href=\"/ogimet.css\">\n  <link rel=\"stylesheet\" type=\"text/css\" href=\"//cdnjs.cloudflare.com/ajax/libs/cookieconsent2/3.0.3/cookieconsent.min.css\" />\n<script src=\"//cdnjs.cloudflare.com/ajax/libs/cookieconsent2/3.0.3/cookieconsent.min.js\"></script>\n<script>\nwindow.addEventListener(\"load\", function(){\nwindow.cookieconsent.initialise({\n  \"palette\": {\n    \"popup\": {\n      \"background\": \"#eb6c44\",\n      \"text\": \"#ffffff\"\n    },\n    \"button\": {\n      \"background\": \"#f5d948\"\n    }\n  },\n  \"theme\": \"classic\",\n  \"position\": \"top\",\n  \"content\": {\n    \"message\": \"Las cookies de este sitio web se usan para personalizar el contenido y los anuncios, ofrecer funciones de redes sociales y analizar el tr\u00e1fico. Ademas, compartimos el uso que haga del sitio web con nuestros partners de redes sociales, publicidad y an\u00e1lisis web, quienes pueden combinarla con otra informaci\u00f3n que les haya proporcionado o que hayan recopilado a partir del uso que haya hecho de sus servicios. Si continua navegando en estas p\u00e1ginas consideramos que acepta su uso. \",\n    \"dismiss\": \"Entendido\",\n    \"link\": \"Saber m\u00e1s\",\n    \"href\": \"/cookiespolicy.phtml\"\n  }\n})});\n</script>\n</head>\n<body>\n<pre>\n##########################################################\n# Query made at 06/26/2021 20:45:34 UTC\n# Time interval: from 01/23/2005 07:00  to 01/23/2005 17:19  UTC\n##########################################################\n\n##########################################################\n# KMLB, Melbourne, Melbourne International Airport (United States)\n# WMO index: 72204\n# Latitude 28-06-10N. Longitude 080-38-45W. Altitude 10 m.\n##########################################################\n\n###################################\n#  METAR/SPECI from KMLB\n###################################\n200501230753 METAR KMLB 230753Z AUTO 22012KT 10SM CLR 17/16 A2991 RMK AO2 SLP127 T01670161=\n200501230853 METAR KMLB 230853Z AUTO 23009KT 10SM CLR 17/16 A2990 RMK AO2 SLP123 60001 T01670161 56025=\n200501230903 SPECI KMLB 230903Z AUTO 23010KT 10SM FEW009 17/16 A2990 RMK AO2=\n200501230922 SPECI KMLB 230922Z AUTO 24010KT 10SM SCT009 BKN016 17/16 A2990 RMK AO2=\n200501230930 SPECI KMLB 230930Z AUTO 24007KT 10SM SCT007 BKN013 BKN019 17/16 A2990 RMK AO2=\n200501230944 SPECI KMLB 230944Z AUTO 24009KT 10SM FEW007 BKN015 17/16 A2990 RMK AO2=\n200501230953 METAR KMLB 230953Z AUTO 23008KT 10SM BKN012 OVC018 17/16 A2989 RMK AO2 SLP122 T01670161=\n200501231008 SPECI KMLB 231008Z AUTO 23008KT 10SM SCT012 SCT018 16/16 A2989 RMK AO2=\n200501231053 METAR KMLB 231053Z AUTO 22011KT 10SM CLR 17/16 A2990 RMK AO2 SLP123 T01670161=\n200501231153 METAR KMLB 231153Z 24010KT 10SM FEW014 BKN032 OVC080 17/17 A2992 RMK AO2 SLP131 60001 70001 T01720167 10172 20161 53009=\n200501231203 SPECI KMLB 231203Z 24010KT 10SM -RA SCT015 BKN019 OVC050 17/17 A2992 RMK AO2 RAB1154 P0000=\n200501231213 SPECI KMLB 231213Z 30010KT 3SM -RA BR FEW006 BKN012 OVC019 17/17 A2994 RMK AO2 RAB1154 PRESRR P0005=\n200501231219 SPECI KMLB 231219Z 29014KT 1SM -RA BR FEW006 BKN019 OVC047 17/17 A2994 RMK AO2 RAB1154 P0006=\n200501231239 SPECI KMLB 231239Z 36018G25KT 1SM -RA BR FEW006 BKN012 OVC043 12/10 A2998 RMK AO2 WSHFT 1225 RAB1154 PRESRR P0008=\n200501231253 METAR KMLB 231253Z 36016KT 8SM -RA OVC012 12/09 A2999 RMK AO2 WSHFT 1225 RAB1154 SLP153 P0008 T01170094=\n200501231320 SPECI KMLB 231320Z 34011KT 10SM -RA OVC017 12/09 A3001 RMK AO2 P0000=\n200501231353 METAR KMLB 231353Z 33010KT 10SM BKN023 12/09 A3003 RMK AO2 RAE45 SLP168 P0000 T01170089=\n200501231409 SPECI KMLB 231409Z 33013KT 10SM SCT025 OVC065 12/07 A3003 RMK AO2=\n200501231453 METAR KMLB 231453Z 32016KT 10SM OVC070 11/06 A3006 RMK AO2 SLP177 60008 T01110061 51046=\n200501231553 METAR KMLB 231553Z 32016KT 10SM CLR 13/04 A3007 RMK AO2 SLP182 T01280044=\n200501231653 METAR KMLB 231653Z 32012KT 10SM CLR 13/01 A3006 RMK AO2 SLP179 T01330011=\n\n</pre>\n\n</body>\n</html>\n"
    },
    {
        "params": {
            "ano": "2005",
            "lugar": "KMLB",
            "fmt": "txt",
            "horaf": "20",
            "anof": "2005",
            "mes": "01",
            "hora": "09",
            "lang": "en",
            "nil": "NO",
            "mesf": "01",
            "ord": "DIR",
            "day": "26",
            "dayf": "26",
            "minf": "16",
            "send": "send",
            "tipo": "SA"
        },
        "text": "<!-- $Id$ -->\n<!DOCTYPE HTML PUBLIC \"-//W3C//DTD HTML 4.01 Transitional//EN\">\n<html>\n<head>\n  <title>Display metars</title>\n  <meta http-equiv=\"Content-Type\" content=\"text/html; charset=utf-8\">\n  <meta name=\"Author\" content=\"G. Ballester\">\n  <meta name=\"GENERATOR\" content=\"Quanta Plus\">\n  <meta name=\"robots\" content=\"index,nofollow\">\n  <meta name=\"keywords\" content=\"metar, speci, taf, weather reports\">\n  <meta name=viewport content=\"width=device-width, initial-scale=1\">  \n  <link rel=\"stylesheet\" href=\"/ogimet.css\">\n  <link rel=\"stylesheet\" type=\"text/css\" href=\"//cdnjs.cloudflare.com/ajax/libs/cookieconsent2/3.0.3/cookieconsent.min.css\" />\n<script src=\"//cdnjs.cloudflare.com/ajax/libs/cookieconsent2/3.0.3/cookieconsent.min.js\"></script>\n<script>\nwindow.addEventListener(\"load\", function(){\nwindow.cookieconsent.initialise({\n  \"palette\": {\n    \"popup\": {\n      \"background\": \"#eb6c44\",\n      \"text\": \"#ffffff\"\n    },\n    \"button\": {\n      \"background\": \"#f5d948\"\n    }\n  },\n  \"theme\": \"classic\",\n  \"position\": \"top\",\n  \"content\": {\n    \"message\": \"Las cookies de este sitio web se usan para personalizar el contenido y los anuncios, ofrecer funciones de redes sociales y analizar el tr\u00e1fico. Ademas, compartimos el uso que haga del sitio web con nuestros partners de redes sociales, publicidad y an\u00e1lisis web, quienes pueden combinarla con otra informaci\u00f3n que les haya proporcionado o que hayan recopilado a partir del uso que haya hecho de sus servicios. Si continua navegando en estas p\u00e1ginas consideramos que acepta su uso. \",\n    \"dismiss\": \"Entendido\",\n    \"link\": \"Saber m\u00e1s\",\n    \"href\": \"/cookiespolicy.phtml\"\n  }\n})});\n</script>\n</head>\n<body>\n<pre>\n##########################################################\n# Query made at 06/26/2021 20:45:37 UTC\n# Time interval: from 01/26/2005 09:00  to 01/26/2005 20:16  UTC\n##########################################################\n\n##########################################################\n# KMLB, Melbourne, Melbourne International Airport (United States)\n# WMO index: 72204\n# Latitude 28-06-10N. Longitude 080-38-45W. Altitude 10 m.\n##########################################################\n\n###################################\n#  METAR/SPECI from KMLB\n###################################\n200501260953 METAR KMLB 260953Z AUTO 24008KT 10SM CLR 11/09 A3002 RMK AO2 SLP166 T01060094=\n200501261053 METAR KMLB 261053Z AUTO 25008KT 10SM FEW090 12/10 A3004 RMK AO2 SLP171 T01170100=\n200501261153 METAR KMLB 261153Z 24006KT 10SM CLR 11/10 A3006 RMK AO2 SLP179 T01110100 10117 20089 53014=\n200501261253 METAR KMLB 261253Z 22004KT 10SM CLR 11/10 A3007 RMK AO2 SLP183 T01110100=\n200501261353 METAR KMLB 261353Z 23007KT 10SM CLR 14/12 A3009 RMK AO2 SLP188 T01390117=\n200501261453 METAR KMLB 261453Z 25008KT 10SM CLR 17/12 A3009 RMK AO2 SLP190 T01670122 51010=\n200501261553 METAR KMLB 261553Z 27010KT 10SM FEW025 19/13 A3009 RMK AO2 SLP190 T01940133=\n200501261653 METAR KMLB 261653Z 28013KT 10SM FEW033 21/13 A3006 RMK AO2 SLP180 T02110128=\n200501261753 METAR KMLB 261753Z 28013KT 10SM FEW039 22/12 A3003 RMK AO2 SLP168 T02220122 10228 20100 58021=\n200501261853 METAR KMLB 261853Z 28007G17KT 10SM SCT045 22/12 A3001 RMK AO2 SLP161 T02220122=\n200501261953 METAR KMLB 261953Z 29015KT 10SM SCT047 BKN060 23/13 A2998 RMK AO2 SLP152 T02330128=\n\n</pre>\n\n</body>\n</html>\n"
    }
]