[
    {
        "params": {
            "hora": "11",
            "nil": "NO",
            "minf": "47",
            "mes": "01",
            "tipo": "SA",
            "dayf": "01",
            "fmt": "txt",
            "send": "send",
            "lang": "en",
            "mesf": "01",
            "lugar": "KONZ",
            "day": "01",
            "horaf": "19",
            "ord": "DIR",
            "ano": "2005",
            "anof": "2005"
        },
        "text": "<!-- $Id$ -->\n<!DOCTYPE HTML PUBLIC \"-//W3C//DTD HTML 4.01 Transitional//EN\">\n<html>\n<head>\n  <title>Display metars</title>\n  <meta http-equiv=\"Content-Type\" content=\"text/html; charset=utf-8\">\n  <meta name=\"Author\" content=\"G. Ballester\">\n  <meta name=\"GENERATOR\" content=\"Quanta Plus\">\n  <meta name=\"robots\" content=\"index,nofollow\">\n  <meta name=\"keywords\" content=\"metar, speci, taf, weather reports\">\n  <meta name=viewport content=\"width=device-width, initial-scale=1\">  \n  <link rel=\"stylesheet\" href=\"/ogimet.css\">\n  <link rel=\"stylesheet\" type=\"text/css\" href=\"//cdnjs.cloudflare.com/ajax/libs/cookieconsent2/3.0.3/cookieconsent.min.css\" />\n<script src=\"//cdnjs.cloudflare.com/ajax/libs/cookieconsent2/3.0.3/cookieconsent.min.js\"></script>\n<script>\nwindow.addEventListener(\"load\", function(){\nwindow.cookieconsent.initialise({\n  \"palette\": {\n    \"popup\": {\n      \"background\": \"#eb6c44\",\n      \"text\": \"#ffffff\"\n    },\n    \"button\": {\n      \"background\": \"#f5d948\"\n    }\n  },\n  \"theme\": \"classic\",\n  \"position\": \"top\",\n  \"content\": {\n    \"message\": \"Las cookies de este sitio web se usan para personalizar el contenido y los anuncios, ofrecer funciones de redes sociales y analizar el tr\u00e1fico. Ademas, compartimos el uso que haga del sitio web con nuestros partners de redes sociales, publicidad y an\u00e1lisis web, quienes pueden combinarla con otra informaci\u00f3n que les haya proporcionado o que hayan recopilado a partir del uso que haya hecho de sus servicios. Si continua navegando en estas p\u00e1ginas consideramos que acepta su uso. \",\n    \"dismiss\": \"Entendido\",\n    \"link\": \"Saber m\u00e1s\",\n    \"href\": \"/cookiespolicy.phtml\"\n  }\n})});\n</script>\n</head>\n<body>\n<pre>\n##########################################################\n# Query made at 02/16/2020 17:46:04 UTC\n# Time interval: from 01/01/2005 11:00  to 01/01/2005 19:47  UTC\n##########################################################\n\n##########################################################\n# KONZ, Detroit/Grosse Ile, Grosse Ile Airport (United States)\n# WMO index: -----\n# Latitude 42-05-55N. Longitude 083-09-40W. Altitude 180 m.\n##########################################################\n\n###################################\n#  METAR/SPECI from KONZ\n###################################\n200501011117 METAR KONZ 011117Z AUTO 33005KT 10SM 00/M04 A3038 RMK AO2=\n200501011137 METAR KONZ 011137Z AUTO 34005KT 10SM 00/M04 A3039 RMK AO2=\n200501011156 METAR KONZ 011156Z AUTO 34004KT 10SM M01/M04 A3040 RMK AO2=\n200501011216 METAR KONZ 011216Z AUTO 33004KT 10SM M01/M04 A3040 RMK AO2=\n200501011236 METAR KONZ 011236Z AUTO 33004KT 10SM M01/ A3041 RMK AO2=\n200501011256 METAR KONZ 011256Z AUTO 33004KT 10SM M01/M04 A3042 RMK AO2=\n200501011316 METAR KONZ 011316Z AUTO 34003KT 10SM M01/M04 A3043 RMK AO2=\n200501011336 METAR KONZ 011336Z AUTO 33004KT 10SM M01/M04 A3043 RMK AO2=\n200501011356 METAR KONZ 011356Z AUTO 33004KT 10SM 00/M04 A3045 RMK AO2=\n200501011418 METAR KONZ 011418Z AUTO 34006KT 10SM 00/M04 A3046 RMK AO2=\n200501011437 METAR KONZ 011437Z AUTO 34007KT 10SM 01/M04 A3046 RMK AO2=\n200501011456 METAR KONZ 011456Z AUTO 36006KT 10SM 01/M04 A3047 RMK AO2=\n200501011516 METAR KONZ 011516Z AUTO 35006KT 10SM 01/M04 A3048 RMK AO2=\n200501011537 METAR KONZ 011537Z AUTO 36006KT 10SM 01/M04 A3049 RMK AO2=\n200501011556 METAR KONZ 011556Z AUTO 03005KT 10SM 01/M04 A3049 RMK AO2=\n200501011616 METAR KONZ 011616Z AUTO 03005KT 10SM 01/M04 A3049 RMK AO2=\n200501011637 METAR KONZ 011637Z AUTO 04004KT 10SM 01/M04 A3049 RMK AO2=\n200501011657 METAR KONZ 011657Z AUTO 02004KT 10SM 02/M04 A3049 RMK AO2=\n200501011718 METAR KONZ 011718Z AUTO 06004KT 10SM 02/M04 A3050 RMK AO2=\n200501011736 METAR KONZ 011736Z AUTO 03004KT 10SM 02/M04 A3049 RMK AO2=\n200501011756 METAR KONZ 011756Z AUTO 05005KT 10SM 02/M04 A3048 RMK AO2=\n200501011816 METAR KONZ 011816Z AUTO 06007KT 10SM 02/M04 A3048 RMK AO2=\n200501011836 METAR KONZ 011836Z AUTO 05007KT 10SM 02/M04 A3047 RMK AO2=\n200501011856 METAR KONZ 011856Z AUTO 06007KT 10SM 02/M04 A3047 RMK AO2=\n200501011916 METAR KONZ 011916Z AUTO 06008KT 10SM 02/M04 A3047 RMK AO2=\n200501011941 METAR KONZ 011941Z AUTO 05008KT 10SM 02/M04 A3048 RMK AO2=\n\n</pre>\n\n</body>\n</html>\n"
    },
    {
        "params": {
            "hora": "11",
            "nil": "NO",
            "minf": "47",
            "mes": "01",
            "tipo": "SA",
            "dayf": "01",
            "fmt": "txt",
            "send": "send",
            "lang": "en",
            "mesf": "01",
            "day": "01",
            "horaf": "19",
            "ord": "DIR",
            "lugar": "KDTW",
            "ano": "2005",
            "anof": "2005"
        },
        "text": "<!-- $Id$ -->\n<!DOCTYPE HTML PUBLIC \"-//W3C//DTD HTML 4.01 Transitional//EN\">\n<html>\n<head>\n  <title>Display metars</title>\n  <meta http-equiv=\"Content-Type\" content=\"text/html; charset=utf-8\">\n  <meta name=\"Author\" content=\"G. Ballester\">\n  <meta name=\"GENERATOR\" content=\"Quanta Plus\">\n  <meta name=\"robots\" content=\"index,nofollow\">\n  <meta name=\"keywords\" content=\"metar, speci, taf, weather reports\">\n  <meta name=viewport content=\"width=device-width, initial-scale=1\">  \n  <link rel=\"stylesheet\" href=\"/ogimet.css\">\n  <link rel=\"stylesheet\" type=\"text/css\" href=\"//cdnjs.cloudflare.com/ajax/libs/cookieconsent2/3.0.3/cookieconsent.min.css\" />\n<script src=\"//cdnjs.cloudflare.com/ajax/libs/cookieconsent2/3.0.3/cookieconsent.min.js\"></script>\n<script>\nwindow.addEventListener(\"load\", function(){\nwindow.cookieconsent.initialise({\n  \"palette\": {\n    \"popup\": {\n      \"background\": \"#eb6c44\",\n      \"text\": \"#ffffff\"\n    },\n    \"button\": {\n      \"background\": \"#f5d948\"\n    }\n  },\n  \"theme\": \"classic\",\n  \"position\": \"top\",\n  \"content\": {\n    \"message\": \"Las cookies de este sitio web se usan para personalizar el contenido y los anuncios, ofrecer funciones de redes sociales y analizar el tr\u00e1fico. Ademas, compartimos el uso que haga del sitio web con nuestros partners de redes sociales, publicidad y an\u00e1lisis web, quienes pueden combinarla con otra informaci\u00f3n que les haya proporcionado o que hayan recopilado a partir del uso que haya hecho de sus servicios. Si continua navegando en estas p\u00e1ginas consideramos que acepta su uso. \",\n    \"dismiss\": \"Entendido\",\n    \"link\": \"Saber m\u00e1s\",\n    \"href\": \"/cookiespolicy.phtml\"\n  }\n})});\n</script>\n</head>\n<body>\n<pre>\n##########################################################\n# Query made at 02/16/2020 18:09:36 UTC\n# Time interval: from 01/01/2005 11:00  to 01/01/2005 19:47  UTC\n##########################################################\n\n##########################################################\n# KDTW, Detroit, Detroit Metropolitan Wayne County Airport (United States)\n# WMO index: 72537\n# Latitude 42-13-53N. Longitude 083-19-51W. Altitude 194 m.\n##########################################################\n\n###################################\n#  METAR/SPECI from KDTW\n###################################\n200501011154 METAR KDTW 011154Z 34003KT 10SM CLR M02/M06 A3041 RMK AO2\n                        SLP303 70001 T10171061 10044 21017\n                        53031=\n200501011254 METAR KDTW 011254Z COR 36003KT 10SM SCT100 BKN150 M02/M06\n                        A3043 RMK AO2 SLP309 T10171061=\n200501011354 METAR KDTW 011354Z 35004KT 10SM SCT100 BKN150 M01/M06 A3046\n                        RMK AO2 SLP320 T10111056=\n200501011454 METAR KDTW 011454Z 01006KT 10SM CLR M01/M06 A3048 RMK AO2\n                        SLP327 T10061061 53023=\n200501011554 METAR KDTW 011554Z 01007KT 10SM OVC140 00/M06 A3051 RMK AO2\n                        SLP336 T00001061=\n200501011654 METAR KDTW 011654Z 04005KT 10SM OVC140 01/M06 A3051 RMK AO2\n                        SLP338 T00111061=\n200501011754 METAR KDTW 011754Z 06005KT 10SM OVC150 02/M07 A3050 RMK AO2\n                        SLP332 T00171067 10017 21017 50004=\n200501011854 METAR KDTW 011854Z 06006KT 10SM OVC150 02/M06 A3048 RMK AO2\n                        SLP329 T00221061=\n\n</pre>\n\n</body>\n</html>\n"
    }
]